{
  "type": "FeatureCollection",
  "features": [
    {
      "type": "Feature",
      "properties": {
        "norad_id": 37836,
        "name": "EUTELSAT 16A",
        "group": "eutelsat",
        "lat": -0.025924631798654812,
        "lon": -31.054715986845544,
        "alt_km": 35772.746444084725,
        "timestamp": "2025-12-22T14:45:57.056220+00:00",
        "meta_object_name": "EUTELSAT 16A",
        "meta_object_id": "2011-057A",
        "meta_epoch": "2025-12-22T04:40:49.373760",
        "meta_mean_motion": 1.0026998,
        "meta_eccentricity": 0.00058547,
        "meta_inclination": 0.0583,
        "meta_ra_of_asc_node": 341.8849,
        "meta_arg_of_pericenter": 290.8283,
        "meta_mean_anomaly": 264.4899,
        "meta_ephemeris_type": 0,
        "meta_classification_type": "U",
        "meta_norad_cat_id": 37836,
        "meta_element_set_no": 999,
        "meta_rev_at_epoch": 555,
        "meta_bstar": 0,
        "meta_mean_motion_dot": 1.26e-06,
        "meta_mean_motion_ddot": 0,
        "tle_line1": "1 37836U 11057A   25356.19501590  .00000126  00000+0  00000+0 0  9999",
        "tle_line2": "2 37836   0.0583 341.8849 0005854 290.8283 264.4899  1.00269980  5558"
      },
      "geometry": {
        "type": "Point",
        "coordinates": [
          -31.054715986845544,
          -0.025924631798654812
        ]
      }
    },
    {
      "type": "Feature",
      "properties": {
        "norad_id": 38992,
        "name": "EUTELSAT 21B",
        "group": "eutelsat",
        "lat": -0.02178596839127236,
        "lon": -25.48408720379452,
        "alt_km": 35779.44481433536,
        "timestamp": "2025-12-22T14:45:57.056232+00:00",
        "meta_object_name": "EUTELSAT 21B",
        "meta_object_id": "2012-062B",
        "meta_epoch": "2025-12-22T04:54:38.620224",
        "meta_mean_motion": 1.00269822,
        "meta_eccentricity": 0.00032589,
        "meta_inclination": 0.0675,
        "meta_ra_of_asc_node": 343.578,
        "meta_arg_of_pericenter": 292.0994,
        "meta_mean_anomaly": 270.5851,
        "meta_ephemeris_type": 0,
        "meta_classification_type": "U",
        "meta_norad_cat_id": 38992,
        "meta_element_set_no": 999,
        "meta_rev_at_epoch": 4805,
        "meta_bstar": 0,
        "meta_mean_motion_dot": 1.52e-06,
        "meta_mean_motion_ddot": 0,
        "tle_line1": "1 38992U 12062B   25356.20461366  .00000152  00000+0  00000+0 0  9997",
        "tle_line2": "2 38992   0.0675 343.5780 0003258 292.0994 270.5851  1.00269822 48059"
      },
      "geometry": {
        "type": "Point",
        "coordinates": [
          -25.48408720379452,
          -0.02178596839127236
        ]
      }
    },
    {
      "type": "Feature",
      "properties": {
        "norad_id": 39020,
        "name": "EUTELSAT 70B",
        "group": "eutelsat",
        "lat": 0.02334515533831758,
        "lon": 23.425385723835795,
        "alt_km": 35797.17989674011,
        "timestamp": "2025-12-22T14:45:57.056245+00:00",
        "meta_object_name": "EUTELSAT 70B",
        "meta_object_id": "2012-069A",
        "meta_epoch": "2025-12-22T03:13:42.717216",
        "meta_mean_motion": 1.00271606,
        "meta_eccentricity": 0.0004239,
        "meta_inclination": 0.062,
        "meta_ra_of_asc_node": 8.6821,
        "meta_arg_of_pericenter": 246.5078,
        "meta_mean_anomaly": 314.671,
        "meta_ephemeris_type": 0,
        "meta_classification_type": "U",
        "meta_norad_cat_id": 39020,
        "meta_element_set_no": 999,
        "meta_rev_at_epoch": 4773,
        "meta_bstar": 0,
        "meta_mean_motion_dot": -2.1e-07,
        "meta_mean_motion_ddot": 0,
        "tle_line1": "1 39020U 12069A   25356.13452219 -.00000021  00000+0  00000+0 0  9992",
        "tle_line2": "2 39020   0.0620   8.6821 0004239 246.5078 314.6710  1.00271606 47735"
      },
      "geometry": {
        "type": "Point",
        "coordinates": [
          23.425385723835795,
          0.02334515533831758
        ]
      }
    },
    {
      "type": "Feature",
      "properties": {
        "norad_id": 39122,
        "name": "EUTELSAT 117 WEST A",
        "group": "eutelsat",
        "lat": -0.028008073350174446,
        "lon": -163.9198829157519,
        "alt_km": 35783.97321386515,
        "timestamp": "2025-12-22T14:45:57.056258+00:00",
        "meta_object_name": "EUTELSAT 117 WEST A",
        "meta_object_id": "2013-012A",
        "meta_epoch": "2025-12-22T04:32:38.645088",
        "meta_mean_motion": 1.00270646,
        "meta_eccentricity": 0.00026178,
        "meta_inclination": 0.0262,
        "meta_ra_of_asc_node": 307.6522,
        "meta_arg_of_pericenter": 325.8564,
        "meta_mean_anomaly": 128.8634,
        "meta_ephemeris_type": 0,
        "meta_classification_type": "U",
        "meta_norad_cat_id": 39122,
        "meta_element_set_no": 999,
        "meta_rev_at_epoch": 4665,
        "meta_bstar": 0,
        "meta_mean_motion_dot": 9e-08,
        "meta_mean_motion_ddot": 0,
        "tle_line1": "1 39122U 13012A   25356.18933617  .00000009  00000+0  00000+0 0  9990",
        "tle_line2": "2 39122   0.0262 307.6522 0002617 325.8564 128.8634  1.00270646 46652"
      },
      "geometry": {
        "type": "Point",
        "coordinates": [
          -163.9198829157519,
          -0.028008073350174446
        ]
      }
    },
    {
      "type": "Feature",
      "properties": {
        "norad_id": 39163,
        "name": "EUTELSAT 7B",
        "group": "eutelsat",
        "lat": -0.06266978747381088,
        "lon": -40.11082693180379,
        "alt_km": 35767.61183806976,
        "timestamp": "2025-12-22T14:45:57.056270+00:00",
        "meta_object_name": "EUTELSAT 7B",
        "meta_object_id": "2013-022A",
        "meta_epoch": "2025-12-22T03:54:38.524896",
        "meta_mean_motion": 1.0027115,
        "meta_eccentricity": 0.00044245,
        "meta_inclination": 0.0652,
        "meta_ra_of_asc_node": 2.8658,
        "meta_arg_of_pericenter": 319.3694,
        "meta_mean_anomaly": 194.3909,
        "meta_ephemeris_type": 0,
        "meta_classification_type": "U",
        "meta_norad_cat_id": 39163,
        "meta_element_set_no": 999,
        "meta_rev_at_epoch": 4617,
        "meta_bstar": 0,
        "meta_mean_motion_dot": 7e-07,
        "meta_mean_motion_ddot": 0,
        "tle_line1": "1 39163U 13022A   25356.16294589  .00000070  00000+0  00000+0 0  9990",
        "tle_line2": "2 39163   0.0652   2.8658 0004424 319.3694 194.3909  1.00271150 46175"
      },
      "geometry": {
        "type": "Point",
        "coordinates": [
          -40.11082693180379,
          -0.06266978747381088
        ]
      }
    },
    {
      "type": "Feature",
      "properties": {
        "norad_id": 39612,
        "name": "EXPRESS-AT1",
        "group": "eutelsat",
        "lat": 0.013463979990273855,
        "lon": 8.887126316882876,
        "alt_km": 35787.940092976685,
        "timestamp": "2025-12-22T14:45:57.056282+00:00",
        "meta_object_name": "EXPRESS-AT1",
        "meta_object_id": "2014-010A",
        "meta_epoch": "2025-12-22T01:26:53.727648",
        "meta_mean_motion": 1.00271765,
        "meta_eccentricity": 7.403e-05,
        "meta_inclination": 0.0237,
        "meta_ra_of_asc_node": 345.2745,
        "meta_arg_of_pericenter": 151.4807,
        "meta_mean_anomaly": 31.835,
        "meta_ephemeris_type": 0,
        "meta_classification_type": "U",
        "meta_norad_cat_id": 39612,
        "meta_element_set_no": 999,
        "meta_rev_at_epoch": 4304,
        "meta_bstar": 0,
        "meta_mean_motion_dot": 0,
        "meta_mean_motion_ddot": 0,
        "tle_line1": "1 39612U 14010A   25356.06034407  .00000000  00000+0  00000+0 0  9990",
        "tle_line2": "2 39612   0.0237 345.2745 0000740 151.4807  31.8350  1.00271765 43042"
      },
      "geometry": {
        "type": "Point",
        "coordinates": [
          8.887126316882876,
          0.013463979990273855
        ]
      }
    },
    {
      "type": "Feature",
      "properties": {
        "norad_id": 39613,
        "name": "EXPRESS-AT2",
        "group": "eutelsat",
        "lat": 0.02102238979756171,
        "lon": 92.75250355636415,
        "alt_km": 35791.53750356367,
        "timestamp": "2025-12-22T14:45:57.056294+00:00",
        "meta_object_name": "EXPRESS-AT2",
        "meta_object_id": "2014-010B",
        "meta_epoch": "2025-12-22T06:58:58.643328",
        "meta_mean_motion": 1.00273903,
        "meta_eccentricity": 0.00014346,
        "meta_inclination": 0.0181,
        "meta_ra_of_asc_node": 293.052,
        "meta_arg_of_pericenter": 347.9573,
        "meta_mean_anomaly": 54.6827,
        "meta_ephemeris_type": 0,
        "meta_classification_type": "U",
        "meta_norad_cat_id": 39613,
        "meta_element_set_no": 999,
        "meta_rev_at_epoch": 4272,
        "meta_bstar": 0,
        "meta_mean_motion_dot": -2.59e-06,
        "meta_mean_motion_ddot": 0,
        "tle_line1": "1 39613U 14010B   25356.29095652 -.00000259  00000+0  00000+0 0  9992",
        "tle_line2": "2 39613   0.0181 293.0520 0001434 347.9573  54.6827  1.00273903 42727"
      },
      "geometry": {
        "type": "Point",
        "coordinates": [
          92.75250355636415,
          0.02102238979756171
        ]
      }
    }
  ]
}